CTC1_L_00123016-03
1 10062U 22724JM  26075.70031250  .00000000  00000+0  00000-0 0  9993
2 10062  60.0000 180.0000 0000000   0.0000   0.0000 14.24551792    17
CTC1_L_00123016-04
1 10063U 22418EV  26075.70031250  .00000000  00000+0  00000-0 0  9994
2 10063  60.0000 180.0000 0000000   0.0000  90.0000 14.24551792    17
CTC1_L_00123017-01
1 10064U 24120ZD  26075.70031250  .00000000  00000+0  00000-0 0  9997
2 10064  60.0000 192.0000 0000000   0.0000 192.0000 14.24551792    14
CTC1_L_00123017-02
1 10065U 24410EQ  26075.70031250  .00000000  00000+0  00000-0 0  9990
2 10065  60.0000 192.0000 0000000   0.0000 282.0000 14.24551792    15
CTC1_L_00123017-03
1 10066U 22595BZ  26075.70031250  .00000000  00000+0  00000-0 0  9993
2 10066  60.0000 192.0000 0000000   0.0000  12.0000 14.24551792    17
CTC1_L_00123017-04
1 10067U 26428FZ  26075.70031250  .00000000  00000+0  00000-0 0  9993
2 10067  60.0000 192.0000 0000000   0.0000 102.0000 14.24551792    18
CTC1_L_00123018-01
1 10068U 25276OW  26075.70031250  .00000000  00000+0  00000-0 0  9994
2 10068  60.0000 204.0000 0000000   0.0000 204.0000 14.24551792    16
CTC1_L_00123018-02
1 10069U 26280ZB  26075.70031250  .00000000  00000+0  00000-0 0  9991
2 10069  60.0000 204.0000 0000000   0.0000 294.0000 14.24551792    16
CTC1_L_00123018-03
1 10070U 22220FB  26075.70031250  .00000000  00000+0  00000-0 0  9993
2 10070  60.0000 204.0000 0000000   0.0000  24.0000 14.24551792    19
CTC1_L_00123018-04
1 10071U 26190YK  26075.70031250  .00000000  00000+0  00000-0 0  9994
2 10071  60.0000 204.0000 0000000   0.0000 114.0000 14.24551792    10
CTC1_L_00123019-01
1 10072U 22943DJ  26075.70031250  .00000000  00000+0  00000-0 0  9997
2 10072  60.0000 216.0000 0000000   0.0000 216.0000 14.24551792    17
CTC1_L_00123019-02
1 10073U 26433SB  26075.70031250  .00000000  00000+0  00000-0 0  9996
2 10073  60.0000 216.0000 0000000   0.0000 306.0000 14.24551792    18
CTC1_L_00123019-03
1 10074U 26718OF  26075.70031250  .00000000  00000+0  00000-0 0  9993
2 10074  60.0000 216.0000 0000000   0.0000  36.0000 14.24551792    19
CTC1_L_00123019-04
1 10075U 25806NB  26075.70031250  .00000000  00000+0  00000-0 0  9991
2 10075  60.0000 216.0000 0000000   0.0000 126.0000 14.24551792    10
CTC1_L_00123020-01
1 10076U 24168XH  26075.70031250  .00000000  00000+0  00000-0 0  9992
2 10076  60.0000 228.0000 0000000   0.0000 228.0000 14.24551792    17
CTC1_L_00123020-02
1 10077U 23213RR  26075.70031250  .00000000  00000+0  00000-0 0  9993
2 10077  60.0000 228.0000 0000000   0.0000 318.0000 14.24551792    18
CTC1_L_00123020-03
1 10078U 25156GG  26075.70031250  .00000000  00000+0  00000-0 0  9992
2 10078  60.0000 228.0000 0000000   0.0000  48.0000 14.24551792    19
CTC1_L_00123020-04
1 10079U 22277KD  26075.70031250  .00000000  00000+0  00000-0 0  9994
2 10079  60.0000 228.0000 0000000   0.0000 138.0000 14.24551792    10
CTC1_L_00123021-01
1 10080U 25018HW  26075.70031250  .00000000  00000+0  00000-0 0  9992
2 10080  60.0000 240.0000 0000000   0.0000 240.0000 14.24551792    10
CTC1_L_00123021-02
1 10081U 22706VI  26075.70031250  .00000000  00000+0  00000-0 0  9994
2 10081  60.0000 240.0000 0000000   0.0000 330.0000 14.24551792    11
CTC1_L_00123021-03
1 10082U 24234UL  26075.70031250  .00000000  00000+0  00000-0 0  9993
2 10082  60.0000 240.0000 0000000   0.0000  60.0000 14.24551792    12
CTC1_L_00123021-04
1 10083U 26359YM  26075.70031250  .00000000  00000+0  00000-0 0  9994
2 10083  60.0000 240.0000 0000000   0.0000 150.0000 14.24551792    13
CTC1_L_00123022-01
1 10084U 25007LR  26075.70031250  .00000000  00000+0  00000-0 0  9994
2 10084  60.0000 252.0000 0000000   0.0000 252.0000 14.24551792    10
CTC1_L_00123022-02
1 10085U 22639QE  26075.70031250  .00000000  00000+0  00000-0 0  9993
2 10085  60.0000 252.0000 0000000   0.0000 342.0000 14.24551792    11
CTC1_L_00123022-03
1 10086U 24478AW  26075.70031250  .00000000  00000+0  00000-0 0  9997
2 10086  60.0000 252.0000 0000000   0.0000  72.0000 14.24551792    12
CTC1_L_00123022-04
1 10087U 24860WC  26075.70031250  .00000000  00000+0  00000-0 0  9993
2 10087  60.0000 252.0000 0000000   0.0000 162.0000 14.24551792    13
CTC1_L_00123023-01
1 10088U 22114BC  26075.70031250  .00000000  00000+0  00000-0 0  9994
2 10088  60.0000 264.0000 0000000   0.0000 264.0000 14.24551792    10
CTC1_L_00123023-02
1 10089U 22010FM  26075.70031250  .00000000  00000+0  00000-0 0  9990
2 10089  60.0000 264.0000 0000000   0.0000 354.0000 14.24551792    11
CTC1_L_00123023-03
1 10090U 23771BK  26075.70031250  .00000000  00000+0  00000-0 0  9997
2 10090  60.0000 264.0000 0000000   0.0000  84.0000 14.24551792    13
CTC1_L_00123023-04
1 10091U 25901HX  26075.70031250  .00000000  00000+0  00000-0 0  9995
2 10091  60.0000 264.0000 0000000   0.0000 174.0000 14.24551792    14
CTC1_L_00123024-01
1 10092U 26835JV  26075.70031250  .00000000  00000+0  00000-0 0  9993
2 10092  60.0000 276.0000 0000000   0.0000 276.0000 14.24551792    11
CTC1_L_00123024-02
1 10093U 24310GQ  26075.70031250  .00000000  00000+0  00000-0 0  9990
2 10093  60.0000 276.0000 0000000   0.0000   6.0000 14.24551792    13
CTC1_L_00123024-03
1 10094U 22436LV  26075.70031250  .00000000  00000+0  00000-0 0  9998
2 10094  60.0000 276.0000 0000000   0.0000  96.0000 14.24551792    13
CTC1_L_00123024-04
1 10095U 25105ZK  26075.70031250  .00000000  00000+0  00000-0 0  9995
2 10095  60.0000 276.0000 0000000   0.0000 186.0000 14.24551792    14
CTC1_L_00123025-01
1 10096U 24268MA  26075.70031250  .00000000  00000+0  00000-0 0  9995
2 10096  60.0000 288.0000 0000000   0.0000 288.0000 14.24551792    11
CTC1_L_00123025-02
1 10097U 26012CL  26075.70031250  .00000000  00000+0  00000-0 0  9995
2 10097  60.0000 288.0000 0000000   0.0000  18.0000 14.24551792    13
CTC1_L_00123025-03
1 10098U 22212UA  26075.70031250  .00000000  00000+0  00000-0 0  9994
2 10098  60.0000 288.0000 0000000   0.0000 108.0000 14.24551792    14
CTC1_L_00123025-04
1 10099U 25490UG  26075.70031250  .00000000  00000+0  00000-0 0  9996
2 10099  60.0000 288.0000 0000000   0.0000 198.0000 14.24551792    14
CTC1_L_00123026-01
1 10100U 25002YC  26075.70031250  .00000000  00000+0  00000-0 0  9998
2 10100  60.0000 300.0000 0000000   0.0000 300.0000 14.24551792    17
CTC1_L_00123026-02
1 10101U 26168NV  26075.70031250  .00000000  00000+0  00000-0 0  9993
2 10101  60.0000 300.0000 0000000   0.0000  30.0000 14.24551792    18
CTC1_L_00123026-03
1 10102U 24712IR  26075.70031250  .00000000  00000+0  00000-0 0  9997
2 10102  60.0000 300.0000 0000000   0.0000 120.0000 14.24551792    19
CTC1_L_00123026-04
1 10103U 24749HS  26075.70031250  .00000000  00000+0  00000-0 0  9998
2 10103  60.0000 300.0000 0000000   0.0000 210.0000 14.24551792    10
CTC1_L_00123027-01
1 10104U 24627EC  26075.70031250  .00000000  00000+0  00000-0 0  9994
2 10104  60.0000 312.0000 0000000   0.0000 312.0000 14.24551792    17
CTC1_L_00123027-02
1 10105U 24409TX  26075.70031250  .00000000  00000+0  00000-0 0  9993
2 10105  60.0000 312.0000 0000000   0.0000  42.0000 14.24551792    18
CTC1_L_00123027-03
1 10106U 23621Z   26075.70031250  .00000000  00000+0  00000-0 0  9999
2 10106  60.0000 312.0000 0000000   0.0000 132.0000 14.24551792    19
CTC1_L_00123027-04
1 10107U 23878DB  26075.70031250  .00000000  00000+0  00000-0 0  9994
2 10107  60.0000 312.0000 0000000   0.0000 222.0000 14.24551792    10
CTC1_L_00123028-01
1 10108U 26417VW  26075.70031250  .00000000  00000+0  00000-0 0  9997
2 10108  60.0000 324.0000 0000000   0.0000 324.0000 14.24551792    17
CTC1_L_00123028-02
1 10109U 22589EE  26075.70031250  .00000000  00000+0  00000-0 0  9994
2 10109  60.0000 324.0000 0000000   0.0000  54.0000 14.24551792    18
CTC1_L_00123028-03
1 10110U 26642ZU  26075.70031250  .00000000  00000+0  00000-0 0  9990
2 10110  60.0000 324.0000 0000000   0.0000 144.0000 14.24551792    10
CTC1_L_00123028-04
1 10111U 25780MH  26075.70031250  .00000000  00000+0  00000-0 0  9993
2 10111  60.0000 324.0000 0000000   0.0000 234.0000 14.24551792    11
CTC1_L_00123029-01
1 10112U 23322PX  26075.70031250  .00000000  00000+0  00000-0 0  9994
2 10112  60.0000 336.0000 0000000   0.0000 336.0000 14.24551792    18
CTC1_L_00123029-02
1 10113U 24945ZP  26075.70031250  .00000000  00000+0  00000-0 0  9997
2 10113  60.0000 336.0000 0000000   0.0000  66.0000 14.24551792    19
CTC1_L_00123029-03
1 10114U 25906UZ  26075.70031250  .00000000  00000+0  00000-0 0  9996
2 10114  60.0000 336.0000 0000000   0.0000 156.0000 14.24551792    10
CTC1_L_00123029-04
1 10115U 25084QW  26075.70031250  .00000000  00000+0  00000-0 0  9994
2 10115  60.0000 336.0000 0000000   0.0000 246.0000 14.24551792    11
CTC1_L_00123030-01
1 10116U 22014HK  26075.70031250  .00000000  00000+0  00000-0 0  9995
2 10116  60.0000 348.0000 0000000   0.0000 348.0000 14.24551792    18
CTC1_L_00123030-02
1 10117U 25581GW  26075.70031250  .00000000  00000+0  00000-0 0  9998
2 10117  60.0000 348.0000 0000000   0.0000  78.0000 14.24551792    19
CTC1_L_00123030-03
1 10118U 22066UZ  26075.70031250  .00000000  00000+0  00000-0 0  9994
2 10118  60.0000 348.0000 0000000   0.0000 168.0000 14.24551792    10
CTC1_L_00123030-04
1 10119U 22758AI  26075.70031250  .00000000  00000+0  00000-0 0  9993
2 10119  60.0000 348.0000 0000000   0.0000 258.0000 14.24551792    11
